O3B MPOWER F1           
1 54755U 22174A   24238.24279782 -.00000022  00000+0  00000+0 0  9995
2 54755   0.0573 346.1103 0006661 162.1793 101.4673  5.00113725 32291
